FLOCK 1C-3              
1 40041U 14033AH  17187.53076461  .00000715  00000-0  82672-4 0  9998
2 40041  97.9258 100.0281 0011822 225.2482 134.7779 14.88662491165371
POLYITAN-1              
1 40042U 14033AJ  17187.61916496  .00000216  00000-0  29575-4 0  9998
2 40042  97.9192  98.6736 0013592 226.0502 133.9594 14.88065493164806
TIGRISAT                
1 40043U 14033AK  17187.59054177  .00000095  00000-0  21845-4 0  9992
2 40043  97.8551  71.5627 0059001 231.0599 128.5343 14.73984616163397
LEMUR-1                 
1 40044U 14033AL  17187.57403350  .00000089  00000-0  21049-4 0  9991
2 40044  97.8549  71.2865 0058139 232.2612 127.3320 14.73808236163278
AEROCUBE 6A             
1 40045U 14033AM  17187.60804325  .00000239  00000-0  42414-4 0  9999
2 40045  97.8670  72.7800 0056936 226.5062 133.1407 14.74832902163344
AEROCUBE 6B             
1 40046U 14033AN  17187.60810292  .00000229  00000-0  41070-4 0  9996
2 40046  97.8663  72.7126 0056170 226.0842 133.5723 14.74832856163342
UKUBE-1                 
1 40074U 14037F   17187.51575289  .00000247  00000-0  37098-4 0  9990
2 40074  98.3491 303.3027 0004629   5.7226 354.4041 14.83511203162044
BRITE-PL 2              
1 40119U 14049B   17187.22722387  .00000087  00000-0  16913-4 0  9999
2 40119  97.9362 273.0283 0018223  31.5491 328.6811 14.84145500155986
FIREBIRD 4              
1 40378U 15003C   17187.48051359  .00000982  00000-0  46226-4 0  9993
2 40378  99.1229  15.3250 0135328 298.6183  60.1487 15.15434081133927
GRIFEX                  
1 40379U 15003D   17187.49630307  .00000691  00000-0  35876-4 0  9997
2 40379  99.1249  13.0420 0141238 306.4092  52.4176 15.12982515133799
EXOCUBE                 
1 40380U 15003E   17187.50077544  .00000459  00000-0  26428-4 0  9994
2 40380  99.1288  11.7533 0144898 310.5111  48.3563 15.11500884133706
DEORBITSAIL             
1 40719U 15032E   17187.57707695  .00000313  00000-0  52714-4 0  9992
2 40719  97.9787  81.0908 0018093  81.0301 279.2955 14.76072127107183
TIANWANG 1C (TW-1C)     
1 40926U 15051B   17187.52890256  .00006422  00000-0  14760-3 0  9999
2 40926  97.2290 226.9422 0013698  97.3955   8.6857 15.42924497 99902
TIANWANG 1B (TW-1B)     
1 40927U 15051C   17187.55738182  .00006117  00000-0  14598-3 0  9992
2 40927  97.2380 226.9785 0013490 106.6411  51.0405 15.41813348 99852
TIANWANG 1A (TW-1A)     
1 40928U 15051D   17187.57571309  .00002997  00000-0  86924-4 0  9996
2 40928  97.2259 223.0426 0014050 123.2520  28.1828 15.36212605 99674
LEMUR-2-JOEL            
1 40932U 15052C   17187.39154217  .00000393  00000-0 -34370-4 0  9994
2 40932   6.0063  90.7380 0013058 171.1309 188.8953 14.77476243 95855
LEMUR-2-CHRIS           
1 40933U 15052D   17187.39198385  .00000748  00000-0  13825-4 0  9994
2 40933   6.0038  89.6056 0014001 175.2737 184.7760 14.77620105 95864
LEMUR-2-JEROEN          
1 40934U 15052E   17187.43981181  .00000846  00000-0  28555-4 0  9999
2 40934   6.0058  94.5524 0010957 160.8735 199.1923 14.76962284 95795
LEMUR-2-PETER           
1 40935U 15052F   17187.39433068  .00000455  00000-0 -25446-4 0  9994
2 40935   6.0022  96.3625 0010170 153.6415 206.4293 14.76731951 95787
EXACTVIEW 9             
1 40936U 15052G   17187.13163950 -.00001897  00000-0 -35659-3 0  9995
2 40936   6.0007 100.5684 0010090 143.4995 216.5976 14.76275254 95740
ATHENOXAT 1             
1 41168U 15077C   17187.42966830  .00001625  00000-0  54182-4 0  9990
2 41168  14.9867  28.8718 0012593 281.6788 299.5776 15.11618765 85954
GALASSIA                
1 41170U 15077E   17186.31369524  .00001537  00000-0  48245-4 0  9992
2 41170  14.9901  33.2716 0013615 285.3981  74.4836 15.12116910 85825
VELOX 2                 
1 41171U 15077F   17186.97665913  .00001303  00000-0  38504-4 0  9994
2 41171  14.9925  40.8865 0009290 251.4504 108.4807 15.09891293 85815
AGGIESAT 4              
1 41313U 98067HP  17187.57083592  .00015220  00000-0  10553-3 0  9992
2 41313  51.6366 263.1411 0002307 230.1071 129.9726 15.74699575 81985
HORYU-IV                
1 41340U 16012D   17187.54418690  .00000402  00000-0  24248-4 0  9993
2 41340  31.0065 345.7972 0014443 266.6090  93.2893 15.00612322 75920
OUFTI-1                 
1 41458U 16025C   17187.61516586  .00000157  00000-0  13359-4 0  9996
2 41458  98.1830 226.3112 0172861 224.2867 134.4418 15.03208129 65508
E-ST@R-II               
1 41459U 16025D   17187.63816496  .00001131  00000-0  65115-4 0  9992
2 41459  98.1864 226.2800 0174021 224.5837 134.1280 15.03065356 65494
AAUSAT 4                
1 41460U 16025E   17187.55755037  .00001034  00000-0  60058-4 0  9991
2 41460  98.1786 226.3077 0166369 222.9550 135.8571 15.03957454 65508
DIWATA-1                
1 41463U 98067HT  17187.53738733  .00005752  00000-0  69008-4 0  9997
2 41463  51.6416 287.6444 0000298 173.3058 277.6075 15.62562754 67824
NODES 2                 
1 41477U 98067HX  17187.57426273  .00051496  00000-0  21783-3 0  9992
2 41477  51.6268 262.2271 0002074 338.6743  21.4173 15.84847382 65146
NODES 1                 
1 41478U 98067HY  17187.43434209  .00047270  00000-0  20696-3 0  9993
2 41478  51.6306 263.5805 0001977 339.9794  20.1132 15.84161576 65110
FLOCK 2E'-1             
1 41479U 98067HZ  17187.50689047  .00013342  00000-0  11475-3 0  9992
2 41479  51.6352 277.7577 0001685 326.4937  33.5953 15.69686864 64899
FLOCK 2E'-3             
1 41480U 98067JA  17187.46916367  .00010829  00000-0  94601-4 0  9997
2 41480  51.6355 277.5265 0001230   9.0416 351.0603 15.69551003 64883
FLOCK 2E'-2             
1 41481U 98067JB  17187.47398784  .00014392  00000-0  12020-3 0  9999
2 41481  51.6338 276.0124 0001745 317.5987  42.4876 15.70323433 64894
FLOCK 2E'-4             
1 41482U 98067JC  17187.48021641  .00015619  00000-0  11882-3 0  9994
2 41482  51.6341 274.5332 0001023  10.6514 349.4506 15.72488287 64913
FLOCK 2E-1              
1 41483U 98067JD  17187.50308731  .00009480  00000-0  86914-4 0  9994
2 41483  51.6371 278.5457 0001486  87.2330 272.8836 15.68541278 64738
FLOCK 2E-2              
1 41484U 98067JE  17187.47222498  .00012356  00000-0  10489-3 0  9995
2 41484  51.6379 276.8569 0000917  94.6782 265.4320 15.70090327 64758
FLOCK 2E-3              
1 41486U 98067JG  17187.52310026  .00026210  00000-0  23261-3 0  9994
2 41486  51.6364 280.1718 0000551  99.9173 260.1886 15.68367984 64734
FLOCK 2E-4              
1 41487U 98067JH  17187.49460175  .00009457  00000-0  86304-4 0  9994
2 41487  51.6368 278.4551 0002043 148.6887 211.4232 15.68661525 64750
FLOCK 2E-6              
1 41563U 98067JM  17187.50702310  .00007703  00000-0  75770-4 0  9998
2 41563  51.6363 280.7879 0001506 317.5610  42.5269 15.67111901 62795
FLOCK 2E-5              
1 41564U 98067JN  17187.51886041  .00008100  00000-0  79711-4 0  9995
2 41564  51.6364 280.8750 0001383 324.1904  35.9000 15.67013959 62781
FLOCK 2E-7              
1 41565U 98067JP  17187.48187191  .00011702  00000-0  98919-4 0  9995
2 41565  51.6356 276.8392 0002506 198.9919 161.0985 15.70259478 62731
FLOCK 2E-8              
1 41566U 98067JQ  17187.55934779  .00210023  30621-4  32523-3 0  9997
2 41566  51.6227 252.1947 0010215   2.1943 357.9112 16.03622967 63059
FLOCK 2E'-5             
1 41567U 98067JR  17187.52279735  .00007374  00000-0  75569-4 0  9994
2 41567  51.6373 282.4182 0003318 213.2080 146.8708 15.66152061 62632
FLOCK 2E'-6             
1 41568U 98067JS  17187.47838613  .00009033  00000-0  84850-4 0  9992
2 41568  51.6358 279.8264 0002812 216.2747 143.8059 15.68009670 62699
FLOCK 2E'-8             
1 41569U 98067JT  17187.51187371  .00011886  00000-0  99254-4 0  9999
2 41569  51.6350 276.2911 0000543 138.0553 222.0486 15.70535726 62623
FLOCK 2E'-7             
1 41570U 98067JU  17187.48697101  .00015134  00000-0  11057-3 0  9998
2 41570  51.6349 273.1293 0000921  98.8304 261.2799 15.73476246 62681
FLOCK 2E-9              
1 41571U 98067JV  17187.50164138  .00011200  00000-0  90543-4 0  9999
2 41571  51.6354 275.4882 0001639 207.8313 152.2597 15.71396794 62611
FLOCK 2E-10             
1 41572U 98067JW  17187.49247055  .00011079  00000-0  96472-4 0  9999
2 41572  51.6362 277.6866 0002670 204.8150 155.2720 15.69602069 62588
FLOCK 2E-12             
1 41573U 98067JX  17187.48280774  .00012243  00000-0  10243-3 0  9999
2 41573  51.6353 276.8555 0002264 226.5725 133.5085 15.70457016 62599
FLOCK 2E-11             
1 41574U 98067JY  17187.54016704  .00012912  00000-0  10696-3 0  9992
2 41574  51.6341 275.6906 0003199 227.7753 132.2974 15.70635241 62610
FLOCK 2E'-9             
1 41575U 98067JZ  17187.52389870  .00015225  00000-0  11969-3 0  9992
2 41575  51.6336 274.8069 0003231 251.1516 108.9132 15.71727306 62612
FLOCK 2E'-10            
1 41576U 98067KA  17187.47179006  .00012703  00000-0  10562-3 0  9991
2 41576  51.6362 276.8081 0003124 246.0763 113.9908 15.70564861 62482
FLOCK 2E'-11            
1 41577U 98067KB  17187.51465222  .00012057  00000-0  10274-3 0  9997
2 41577  51.6367 277.1047 0003071 216.4349 143.6439 15.70027657 62303
FLOCK 2E'-12            
1 41578U 98067KC  17187.49923269  .00013990  00000-0  11184-3 0  9993
2 41578  51.6339 276.1743 0002799 209.7898 150.2941 15.71409912 62317
FLOCK 2P-6              
1 41606U 16040H   17187.42486481  .00001361  00000-0  62173-4 0  9993
2 41606  97.4583 249.9832 0011242  16.5260 343.6341 15.22264375 57634
FLOCK 2P-11             
1 41608U 16040K   17187.56194885  .00001734  00000-0  78370-4 0  9994
2 41608  97.4578 250.0886 0011272  16.3658 343.7940 15.22257825 57597
FLOCK 2P-2              
1 41609U 16040L   17187.11818467  .00001350  00000-0  61684-4 0  9999
2 41609  97.4583 249.6359 0011189  17.2367 342.9247 15.22261615 57501
FLOCK 2P-9              
1 41610U 16040M   17187.58907645  .00000888  00000-0  41635-4 0  9998
2 41610  97.4579 250.0647 0011388  15.8418 344.3172 15.22258934 57453
